[
    {
        "Altitude(m)": 558431.0776565798,
        "Argument of Periapsis(deg)": 0.0,
        "Eccentricity": 0.0,
        "Inclination(deg)": 53.0,
        "Latitude(deg)": 46.73397532632421,
        "Longitude(deg)": -87.19824581181227,
        "Mean Anomaly(deg)": -294.5455,
        "RAAN(deg)": 320.0,
        "Satellite Name": "Starlink Shell 1 1412",
        "Satellite Number": 1412,
        "Semi-Major Axis(m)": 6931778.249405717,
        "Time(s)": 0
    },
    {
        "Altitude(m)": 558499.5871689115,
        "Argument of Periapsis(deg)": 0.00034857847951123687,
        "Eccentricity": 0.0,
        "Inclination(deg)": 53.0,
        "Latitude(deg)": 47.03446023429224,
        "Longitude(deg)": -86.43627117533883,
        "Mean Anomaly(deg)": -293.9186687964433,
        "RAAN(deg)": 319.9994812299225,
        "Satellite Name": "Starlink Shell 1 1412",
        "Satellite Number": 1412,
        "Semi-Major Axis(m)": 6931778.249405717,
        "Time(s)": 10
    },
    {
        "Altitude(m)": 558566.8781742088,
        "Argument of Periapsis(deg)": 0.0006971569590224737,
        "Eccentricity": 0.0,
        "Inclination(deg)": 53.0,
        "Latitude(deg)": 47.32923398449689,
        "Longitude(deg)": -85.66532289793223,
        "Mean Anomaly(deg)": -293.2918375928866,
        "RAAN(deg)": 319.9989624598451,
        "Satellite Name": "Starlink Shell 1 1412",
        "Satellite Number": 1412,
        "Semi-Major Axis(m)": 6931778.249405717,
        "Time(s)": 20
    },
    {
        "Altitude(m)": 558632.9091745801,
        "Argument of Periapsis(deg)": 0.0010457354385337105,
        "Eccentricity": 0.0,
        "Inclination(deg)": 53.0,
        "Latitude(deg)": 47.618174641715676,
        "Longitude(deg)": -84.8853846784202,
        "Mean Anomaly(deg)": -292.66500638932985,
        "RAAN(deg)": 319.99844368976756,
        "Satellite Name": "Starlink Shell 1 1412",
        "Satellite Number": 1412,
        "Semi-Major Axis(m)": 6931778.249405717,
        "Time(s)": 30
    },
    {
        "Altitude(m)": 558697.639515838,
        "Argument of Periapsis(deg)": 0.0013943139180449475,
        "Eccentricity": 0.0,
        "Inclination(deg)": 53.0,
        "Latitude(deg)": 47.901159423598884,
        "Longitude(deg)": -84.09644978688314,
        "Mean Anomaly(deg)": -292.0381751857732,
        "RAAN(deg)": 319.9979249196901,
        "Satellite Name": "Starlink Shell 1 1412",
        "Satellite Number": 1412,
        "Semi-Major Axis(m)": 6931778.249405717,
        "Time(s)": 40
    },
    {
        "Altitude(m)": 558761.0294076274,
        "Argument of Periapsis(deg)": 0.0017428923975561844,
        "Eccentricity": 0.0,
        "Inclination(deg)": 53.0,
        "Latitude(deg)": 48.1780648416348,
        "Longitude(deg)": -83.29852263240855,
        "Mean Anomaly(deg)": -291.41134398221647,
        "RAAN(deg)": 319.9974061496127,
        "Satellite Name": "Starlink Shell 1 1412",
        "Satellite Number": 1412,
        "Semi-Major Axis(m)": 6931778.249405717,
        "Time(s)": 50
    },
    {
        "Altitude(m)": 558823.0399431051,
        "Argument of Periapsis(deg)": 0.002091470877067421,
        "Eccentricity": 0.0,
        "Inclination(deg)": 53.0,
        "Latitude(deg)": 48.448766853174924,
        "Longitude(deg)": -82.4916188162071,
        "Mean Anomaly(deg)": -290.7845127786597,
        "RAAN(deg)": 319.99688737953517,
        "Satellite Name": "Starlink Shell 1 1412",
        "Satellite Number": 1412,
        "Semi-Major Axis(m)": 6931778.249405717,
        "Time(s)": 60
    },
    {
        "Altitude(m)": 558883.6331181804,
        "Argument of Periapsis(deg)": 0.0024400493565786582,
        "Eccentricity": 0.0,
        "Inclination(deg)": 53.0,
        "Latitude(deg)": 48.71314102465104,
        "Longitude(deg)": -81.6757651795192,
        "Mean Anomaly(deg)": -290.15768157510297,
        "RAAN(deg)": 319.99636860945765,
        "Satellite Name": "Starlink Shell 1 1412",
        "Satellite Number": 1412,
        "Semi-Major Axis(m)": 6931778.249405717,
        "Time(s)": 70
    },
    {
        "Altitude(m)": 558942.7718502671,
        "Argument of Periapsis(deg)": 0.002788627836089895,
        "Eccentricity": 0.0,
        "Inclination(deg)": 53.0,
        "Latitude(deg)": 48.971062706048166,
        "Longitude(deg)": -80.85100135545673,
        "Mean Anomaly(deg)": -289.53085037154625,
        "RAAN(deg)": 319.99584983938024,
        "Satellite Name": "Starlink Shell 1 1412",
        "Satellite Number": 1412,
        "Semi-Major Axis(m)": 6931778.249405717,
        "Time(s)": 80
    },
    {
        "Altitude(m)": 559000.4199965926,
        "Argument of Periapsis(deg)": 0.0031372063156011316,
        "Eccentricity": 0.0,
        "Inclination(deg)": 53.0,
        "Latitude(deg)": 49.22240721662642,
        "Longitude(deg)": -80.01737979502442,
        "Mean Anomaly(deg)": -288.90401916798965,
        "RAAN(deg)": 319.9953310693027,
        "Satellite Name": "Starlink Shell 1 1412",
        "Satellite Number": 1412,
        "Semi-Major Axis(m)": 6931778.249405717,
        "Time(s)": 90
    },
    {
        "Altitude(m)": 559056.5423720183,
        "Argument of Periapsis(deg)": 0.0034857847951123688,
        "Eccentricity": 0.0,
        "Inclination(deg)": 53.0,
        "Latitude(deg)": 49.46705004180355,
        "Longitude(deg)": -79.17496577590845,
        "Mean Anomaly(deg)": -288.27718796443287,
        "RAAN(deg)": 319.99481229922526,
        "Satellite Name": "Starlink Shell 1 1412",
        "Satellite Number": 1412,
        "Semi-Major Axis(m)": 6931778.249405717,
        "Time(s)": 100
    },
    {
        "Altitude(m)": 559111.1047663528,
        "Argument of Periapsis(deg)": 0.003834363274623606,
        "Eccentricity": 0.0,
        "Inclination(deg)": 53.0,
        "Latitude(deg)": 49.704867041020975,
        "Longitude(deg)": -78.32383890237956,
        "Mean Anomaly(deg)": -287.65035676087615,
        "RAAN(deg)": 319.9942935291478,
        "Satellite Name": "Starlink Shell 1 1412",
        "Satellite Number": 1412,
        "Semi-Major Axis(m)": 6931778.249405717,
        "Time(s)": 110
    },
    {
        "Altitude(m)": 559164.0739612245,
        "Argument of Periapsis(deg)": 0.004182941754134842,
        "Eccentricity": 0.0,
        "Inclination(deg)": 53.0,
        "Latitude(deg)": 49.93573466632436,
        "Longitude(deg)": -77.46409306581542,
        "Mean Anomaly(deg)": -287.02352555731943,
        "RAAN(deg)": 319.99377475907033,
        "Satellite Name": "Starlink Shell 1 1412",
        "Satellite Number": 1412,
        "Semi-Major Axis(m)": 6931778.249405717,
        "Time(s)": 120
    },
    {
        "Altitude(m)": 559215.4177463851,
        "Argument of Periapsis(deg)": 0.004531520233646079,
        "Eccentricity": 0.0,
        "Inclination(deg)": 53.0,
        "Latitude(deg)": 50.15953019128567,
        "Longitude(deg)": -76.59583637378019,
        "Mean Anomaly(deg)": -286.3966943537627,
        "RAAN(deg)": 319.9932559889928,
        "Satellite Name": "Starlink Shell 1 1412",
        "Satellite Number": 1412,
        "Semi-Major Axis(m)": 6931778.249405717,
        "Time(s)": 130
    },
    {
        "Altitude(m)": 559265.1049355769,
        "Argument of Periapsis(deg)": 0.0048800987131573164,
        "Eccentricity": 0.0,
        "Inclination(deg)": 53.0,
        "Latitude(deg)": 50.37613194978867,
        "Longitude(deg)": -75.719192555447,
        "Mean Anomaly(deg)": -285.769863150206,
        "RAAN(deg)": 319.9927372189154,
        "Satellite Name": "Starlink Shell 1 1412",
        "Satellite Number": 1412,
        "Semi-Major Axis(m)": 6931778.249405717,
        "Time(s)": 140
    },
    {
        "Altitude(m)": 559313.1053818212,
        "Argument of Periapsis(deg)": 0.005228677192668553,
        "Eccentricity": 0.0,
        "Inclination(deg)": 53.0,
        "Latitude(deg)": 50.585419584088,
        "Longitude(deg)": -74.83430081243755,
        "Mean Anomaly(deg)": -285.1430319466493,
        "RAAN(deg)": 319.9922184488379,
        "Satellite Name": "Starlink Shell 1 1412",
        "Satellite Number": 1412,
        "Semi-Major Axis(m)": 6931778.249405717,
        "Time(s)": 150
    },
    {
        "Altitude(m)": 559359.3899922464,
        "Argument of Periapsis(deg)": 0.00557725567217979,
        "Eccentricity": 0.0,
        "Inclination(deg)": 53.0,
        "Latitude(deg)": 50.78727430143599,
        "Longitude(deg)": -73.94131562271872,
        "Mean Anomaly(deg)": -284.5162007430925,
        "RAAN(deg)": 319.9916996787604,
        "Satellite Name": "Starlink Shell 1 1412",
        "Satellite Number": 1412,
        "Semi-Major Axis(m)": 6931778.249405717,
        "Time(s)": 160
    },
    {
        "Altitude(m)": 559403.9307423265,
        "Argument of Periapsis(deg)": 0.0059258341516910265,
        "Eccentricity": 0.0,
        "Inclination(deg)": 53.0,
        "Latitude(deg)": 50.981579138452574,
        "Longitude(deg)": -73.04040800520761,
        "Mean Anomaly(deg)": -283.88936953953583,
        "RAAN(deg)": 319.99118090868296,
        "Satellite Name": "Starlink Shell 1 1412",
        "Satellite Number": 1412,
        "Semi-Major Axis(m)": 6931778.249405717,
        "Time(s)": 170
    },
    {
        "Altitude(m)": 559446.7006896541,
        "Argument of Periapsis(deg)": 0.006274412631202263,
        "Eccentricity": 0.0,
        "Inclination(deg)": 53.0,
        "Latitude(deg)": 51.16821923229568,
        "Longitude(deg)": -72.13176521420421,
        "Mean Anomaly(deg)": -283.2625383359792,
        "RAAN(deg)": 319.9906621386055,
        "Satellite Name": "Starlink Shell 1 1412",
        "Satellite Number": 1412,
        "Semi-Major Axis(m)": 6931778.249405717,
        "Time(s)": 180
    }
]